[{"OBJECT_NAME":"NUSAT-44 (MARIA MITCHELL)","OBJECT_ID":"2024-043AA","EPOCH":"2026-03-09T22:12:18.524160","MEAN_MOTION":15.29764305,"ECCENTRICITY":0.0007331,"INCLINATION":97.5299,"RA_OF_ASC_NODE":207.7691,"ARG_OF_PERICENTER":214.9017,"MEAN_ANOMALY":145.1743,"EPHEMERIS_TYPE":0,"CLASSIFICATION_TYPE":"U","NORAD_CAT_ID":59122,"ELEMENT_SET_NO":999,"REV_AT_EPOCH":11209,"BSTAR":0.00061063193,"MEAN_MOTION_DOT":0.00017562,"MEAN_MOTION_DDOT":0},{"OBJECT_NAME":"STARLINK-36462","OBJECT_ID":"2026-002S","EPOCH":"2026-03-08T02:31:06.610368","MEAN_MOTION":15.2763031,"ECCENTRICITY":0.00012654,"INCLINATION":42.9979,"RA_OF_ASC_NODE":334.466,"ARG_OF_PERICENTER":246.6854,"MEAN_ANOMALY":113.3865,"EPHEMERIS_TYPE":0,"CLASSIFICATION_TYPE":"U","NORAD_CAT_ID":67321,"ELEMENT_SET_NO":999,"REV_AT_EPOCH":1083,"BSTAR":0.0014934836,"MEAN_MOTION_DOT":0.00041128,"MEAN_MOTION_DDOT":0}]
